ONEWEB-0531             
1 54146U 22138AK  25230.58412055 -.00000012  00000+0 -62287-4 0  9991
2 54146  87.9291 334.7415 0001718 128.4032 231.7256 13.20772289140239
ONEWEB-0535             
1 54147U 22138AL  25230.41865791  .00000073  00000+0  15106-3 0  9995
2 54147  87.9259   5.1301 0001885 109.5096 250.6241 13.19726681136908
ONEWEB-0536             
1 54148U 22138AM  25230.64724712 -.00000017  00000+0 -74147-4 0  9999
2 54148  87.9298 334.7751 0001556 133.3077 226.8186 13.20772484140239
ONEWEB-0527             
1 54642U 22166A   25230.46144889  .00000056  00000+0  10346-3 0  9991
2 54642  87.9253 304.4066 0001900  97.5759 262.5590 13.21828645131545
ONEWEB-0528             
1 54643U 22166B   25230.61915823 -.00000009  00000+0 -52407-4 0  9998
2 54643  87.9255 304.3770 0001916  95.5235 264.6118 13.21827913132023
ONEWEB-0539             
1 54644U 22166C   25230.57973999  .00000007  00000+0 -13813-4 0  9997
2 54644  87.9246 304.3554 0002177  96.1483 263.9899 13.21825947131567
ONEWEB-0540             
1 54645U 22166D   25230.58618847 -.00000083  00000+0 -23307-3 0  9990
2 54645  87.9252 304.3889 0002198  96.6315 263.5069 13.21826929131553
ONEWEB-0542             
1 54646U 22166E   25230.66490249 -.00000056  00000+0 -16700-3 0  9993
2 54646  87.9245 304.3358 0002353 100.3707 259.7693 13.21827474132038
